[{"OBJECT_NAME":"STARLINK-3786","OBJECT_ID":"2022-041C","EPOCH":"2026-03-09T09:13:32.680128","MEAN_MOTION":15.08842095,"ECCENTRICITY":0.00013249,"INCLINATION":53.2165,"RA_OF_ASC_NODE":110.4925,"ARG_OF_PERICENTER":96.0614,"MEAN_ANOMALY":264.0529,"EPHEMERIS_TYPE":0,"CLASSIFICATION_TYPE":"U","NORAD_CAT_ID":52263,"ELEMENT_SET_NO":999,"REV_AT_EPOCH":21431,"BSTAR":1.358664e-5,"MEAN_MOTION_DOT":-7.2e-7,"MEAN_MOTION_DDOT":0},{"OBJECT_NAME":"DISKSAT C","OBJECT_ID":"2025-305A","EPOCH":"2026-03-09T19:16:32.318976","MEAN_MOTION":15.07852977,"ECCENTRICITY":0.00045341,"INCLINATION":45.0017,"RA_OF_ASC_NODE":250.1278,"ARG_OF_PERICENTER":310.7706,"MEAN_ANOMALY":49.2776,"EPHEMERIS_TYPE":0,"CLASSIFICATION_TYPE":"U","NORAD_CAT_ID":67219,"ELEMENT_SET_NO":999,"REV_AT_EPOCH":1231,"BSTAR":0.00075564202,"MEAN_MOTION_DOT":0.00011541,"MEAN_MOTION_DDOT":0}]
